NORAD_CAT_ID,OBJECT_NAME,OBJECT_TYPE,EPOCH,MEAN_MOTION,ECCENTRICITY,INCLINATION,RA_OF_ASC_NODE,ARG_OF_PERICENTER,MEAN_ANOMALY,BSTAR,MEAN_MOTION_DOT,MEAN_MOTION_DDOT,TLE_LINE0,TLE_LINE1,TLE_LINE2,SEMIMAJOR_AXIS,PERIOD,APOGEE,PERIGEE,DECAYED
52563.0,STARLINK-3942,PAYLOAD,2022-05-29 04:08:59,15.64269261,0.0001472,53.2195,217.7842,333.8821,26.2121,-0.0020538,-0.00195419,0.0,0 STARLINK-3942,1 52563U 22051AG  22149.17291614 -.00195419  00000-0 -20538-2 0  9991,2 52563  53.2195 217.7842 0001472 333.8821  26.2121 15.64269261  2942,6753.478,92.056,376.337,374.349,0.0
52563.0,STARLINK-3942,PAYLOAD,2022-05-29 13:21:20,15.63486351,0.0001565999999999,53.2192,215.9147,12.9886,347.117,-0.0028766,-0.00263007,0.0,0 STARLINK-3942,1 52563U 22051AG  22149.55648239 -.00263007  00000-0 -28766-2 0  9992,2 52563  53.2192 215.9147 0001566  12.9886 347.1170 15.63486351  3004,6755.733,92.102,378.655,376.54,0.0
52563.0,STARLINK-3942,PAYLOAD,2022-05-29 20:00:01,15.62617396,0.0001651,53.2172,214.5457,36.6238,82.2031,-0.010033,-0.00838212,0.0,0 STARLINK-3942,1 52563U 22051AG  22149.83334491 -.00838212  00000-0 -10033-1 0  9998,2 52563  53.2172 214.5457 0001651  36.6238  82.2031 15.62617396  3041,6758.236999999999,92.153,381.218,378.986,0.0
52563.0,STARLINK-3942,PAYLOAD,2022-05-29 21:01:44,15.6306387,0.0003821,53.2195,214.3547,23.9049,336.2144,-0.0044376,-0.00392771,0.0,0 STARLINK-3942,1 52563U 22051AG  22149.87620745 -.00392771  00000-0 -44376-2 0  9995,2 52563  53.2195 214.3547 0003821  23.9049 336.2144 15.63063870  2986,6756.95,92.127,381.397,376.233,0.0
52563.0,STARLINK-3942,PAYLOAD,2022-05-30 14:00:01,15.61276048,0.0001554,53.2175,210.894,33.8543,344.6252,-0.010551,-0.00836559,0.0,0 STARLINK-3942,1 52563U 22051AG  22150.58334491 -.00836559  00000-0 -10551-1 0  9999,2 52563  53.2175 210.8940 0001554  33.8543 344.6252 15.61276048  1301,6762.107,92.232,385.023,382.921,0.0
52563.0,STARLINK-3942,PAYLOAD,2022-05-30 22:00:00,15.60680178,0.0001479,53.2175,209.2709,39.5678,53.151,-0.010785,-0.00835633,0.0,0 STARLINK-3942,1 52563U 22051AG  22150.91667824 -.00835633  00000-0 -10785-1 0  9996,2 52563  53.2175 209.2709 0001479  39.5678  53.1510 15.60680178  3217,6763.828,92.267,386.694,384.693,0.0
52563.0,STARLINK-3942,PAYLOAD,2022-05-31 06:00:02,15.60084511,0.0001740999999999,53.2177,207.6511,38.633,127.6732,-0.011032,-0.0083542,0.0,0 STARLINK-3942,1 52563U 22051AG  22151.25002315 -.00835420  00000-0 -11032-1 0  9992,2 52563  53.2177 207.6511 0001741  38.6330 127.6732 15.60084511  1309,6765.55,92.303,388.593,386.237,0.0
52563.0,STARLINK-3942,PAYLOAD,2022-05-31 12:58:33,15.60591524,0.0001498,53.2184,206.2583,102.2804,257.8379,-0.0019166,-0.00158751,0.0,0 STARLINK-3942,1 52563U 22051AG  22151.54066935 -.00158751  00000-0 -19166-2 0  9994,2 52563  53.2184 206.2583 0001498 102.2804 257.8379 15.60591524  3317,6764.084,92.273,386.963,384.936,0.0
52563.0,STARLINK-3942,PAYLOAD,2022-05-31 20:40:14,15.59490527,0.0001714,53.2183,204.7047,22.2459,337.8629,-0.0053017,-0.00407535,0.0,0 STARLINK-3942,1 52563U 22051AG  22151.86128414 -.00407535  00000-0 -53017-2 0  9990,2 52563  53.2183 204.7047 0001714  22.2459 337.8629 15.59490527  3363,6767.268,92.338,390.292,387.973,0.0
52563.0,STARLINK-3942,PAYLOAD,2022-06-01 06:00:00,15.5830016,0.0001603,53.2177,202.8007,33.1445,349.36800000000005,-0.011879,-0.00839793,0.0,0 STARLINK-3942,1 52563U 22051AG  22152.25001157 -.00839793  00000-0 -11879-1 0  9992,2 52563  53.2177 202.8007 0001603  33.1445 349.3680 15.58300160  3428,6770.7130000000025,92.408,393.664,391.49300000000005,0.0
52563.0,STARLINK-3942,PAYLOAD,2022-06-01 20:00:01,15.572559900000002,0.0001515,53.2174,199.9773,36.2966,19.4004,-0.0123069999999999,-0.00836627,0.0,0 STARLINK-3942,1 52563U 22051AG  22152.83334491 -.00836627  00000-0 -12307-1 0  9996,2 52563  53.2174 199.9773 0001515  36.2966  19.4004 15.57255990  1304,6773.74,92.47,396.631,394.578,0.0
52563.0,STARLINK-3942,PAYLOAD,2022-06-02 17:20:14,15.56321973,0.000191,53.2176,195.6967,30.7392,329.3733,-0.0061773,-0.00420631,0.0,0 STARLINK-3942,1 52563U 22051AG  22153.72238981 -.00420631  00000-0 -61773-2 0  9998,2 52563  53.2176 195.6967 0001910  30.7392 329.3733 15.56321973  3651,6776.45,92.526,399.609,397.02,0.0
52563.0,STARLINK-3942,PAYLOAD,2022-06-03 14:55:04,15.56133696,0.0003221,53.2181,191.3566,248.0618,112.0052,-0.001503,-0.00106059,0.0,0 STARLINK-3942,1 52563U 22051AG  22154.62157598 -.00106059  00000-0 -15030-2 0  9992,2 52563  53.2181 191.3566 0003221 248.0618 112.0052 15.56133696  3796,6776.996,92.537,401.044,396.67800000000005,0.0
52563.0,STARLINK-3942,PAYLOAD,2022-06-03 14:56:05,15.54900696,6.59e-05,53.2181,191.3604,58.6744,301.4333,-0.0061093999999999,-0.00395809,0.0,0 STARLINK-3942,1 52563U 22051AG  22154.62228016 -.00395809  00000-0 -61094-2 0  9990,2 52563  53.2181 191.3604 0000659  58.6744 301.4333 15.54900696  3792,6780.578,92.61,402.89,401.996,0.0
52563.0,STARLINK-3942,PAYLOAD,2022-06-05 22:00:00,15.49889674,0.0001656,53.2173,180.3359,42.0308,184.5799,-0.00012138,-7.335e-05,0.0,0 STARLINK-3942,1 52563U 22051AG  22156.91667824 -.00007335  00000-0 -12138-3 0  9998,2 52563  53.2173 180.3359 0001656  42.0308 184.5799 15.49889674  4141,6795.186,92.91,418.176,415.925,0.0
52563.0,STARLINK-3942,PAYLOAD,2022-06-06 14:00:01,15.49963461,0.0001567,53.2173,177.1513,33.0697,315.3448,-0.017291,-0.00906482,0.0,0 STARLINK-3942,1 52563U 22051AG  22157.58334491 -.00906482  00000-0 -17291-1 0  9997,2 52563  53.2173 177.1513 0001567  33.0697 315.3448 15.49963461  1306,6794.97,92.905,417.9,415.77,0.0
52563.0,STARLINK-3942,PAYLOAD,2022-06-06 22:00:00,15.4932083,0.0001786999999999,53.2174,175.5544,27.5356,21.4942,-0.016341,-0.0083178,0.0,0 STARLINK-3942,1 52563U 22051AG  22157.91667824 -.00831780  00000-0 -16341-1 0  9996,2 52563  53.2174 175.5544 0001787  27.5356  21.4942 15.49320830  1308,6796.849,92.944,419.92800000000005,417.499,0.0
52563.0,STARLINK-3942,PAYLOAD,2022-06-07 06:00:00,15.48726004,0.0002051,53.2175,173.9635,27.7886,81.1142,-0.016712,-0.00832905,0.0,0 STARLINK-3942,1 52563U 22051AG  22158.25001157 -.00832905  00000-0 -16712-1 0  9997,2 52563  53.2175 173.9635 0002051  27.7886  81.1142 15.48726004  4352,6798.589,92.98,421.848,419.06,0.0
52563.0,STARLINK-3942,PAYLOAD,2022-06-07 14:00:01,15.48131228,0.0001571,53.2171,172.3727,47.8315,120.2291,-0.01709,-0.00833881,0.0,0 STARLINK-3942,1 52563U 22051AG  22158.58334491 -.00833881  00000-0 -17090-1 0  9997,2 52563  53.2171 172.3727 0001571  47.8315 120.2291 15.48131228  1309,6800.33,93.015,423.263,421.127,0.0
52563.0,STARLINK-3942,PAYLOAD,2022-06-07 22:00:00,15.47534553,0.0001693,53.2173,170.7813,41.7011,184.8036,-0.017412,-0.00832177,0.0,0 STARLINK-3942,1 52563U 22051AG  22158.91667824 -.00832177  00000-0 -17412-1 0  9998,2 52563  53.2173 170.7813 0001693  41.7011 184.8036 15.47534553  1300,6802.078,93.051,425.095,422.791,0.0
52563.0,STARLINK-3942,PAYLOAD,2022-06-08 06:00:02,15.46938146,0.0001669,53.2175,169.1948,41.455,242.8404,-0.017748,-0.00830863,0.0,0 STARLINK-3942,1 52563U 22051AG  22159.25002315 -.00830863  00000-0 -17748-1 0  9996,2 52563  53.2175 169.1948 0001669  41.4550 242.8404 15.46938146  4516,6803.826,93.087,426.827,424.556,0.0
52563.0,STARLINK-3942,PAYLOAD,2022-06-08 14:00:01,15.46345124,0.00014,53.2172,167.6083,45.4604,295.7803,-0.01821,-0.00834676,0.0,0 STARLINK-3942,1 52563U 22051AG  22159.58334491 -.00834676  00000-0 -18210-1 0  9996,2 52563  53.2172 167.6083 0001400  45.4604 295.7803 15.46345124  1305,6805.566,93.123,428.383,426.478,0.0
52563.0,STARLINK-3942,PAYLOAD,2022-06-08 22:00:01,15.45746406,0.0001501,53.2173,166.0212,38.6039,358.9992,-0.018497,-0.00830809,0.0,0 STARLINK-3942,1 52563U 22051AG  22159.91668981 -.00830809  00000-0 -18497-1 0  9998,2 52563  53.2173 166.0212 0001501  38.6039 358.9992 15.45746406  1309,6807.323,93.159,430.21,428.166,0.0
52563.0,STARLINK-3942,PAYLOAD,2022-06-09 06:00:00,15.45152471,0.0001705,53.2173,164.4392,36.764,56.3523,-0.018936,-0.00833113,0.0,0 STARLINK-3942,1 52563U 22051AG  22160.25001157 -.00833113  00000-0 -18936-1 0  9992,2 52563  53.2173 164.4392 0001705  36.7640  56.3523 15.45152471  4667,6809.066999999999,93.195,432.093,429.771,0.0
52563.0,STARLINK-3942,PAYLOAD,2022-06-09 14:00:01,15.44556559,0.0001585999999999,53.2171,162.8566,45.5142,102.4659,-0.019307,-0.00832278,0.0,0 STARLINK-3942,1 52563U 22051AG  22160.58334491 -.00832278  00000-0 -19307-1 0  9992,2 52563  53.2171 162.8566 0001586  45.5142 102.4659 15.44556559  1307,6810.818,93.231,433.764,431.603,0.0
52563.0,STARLINK-3942,PAYLOAD,2022-06-09 22:00:00,15.43961285,0.0001622,53.2172,161.2738,47.4773,154.6517,-0.019732,-0.00833363,0.0,0 STARLINK-3942,1 52563U 22051AG  22160.91667824 -.00833363  00000-0 -19732-1 0  9996,2 52563  53.2172 161.2738 0001622  47.4773 154.6517 15.43961285  1301,6812.569,93.267,435.539,433.329,0.0
52563.0,STARLINK-3942,PAYLOAD,2022-06-10 08:00:01,15.43217866,0.0001537,53.2174,159.3018,42.253,316.5525,-0.020283,-0.00845913,0.0,0 STARLINK-3942,1 52563U 22051AG  22161.33334491 -.00845913  00000-0 -20283-1 0  9991,2 52563  53.2174 159.3018 0001537  42.2530 316.5525 15.43217866  4839,6814.757,93.312,437.669,435.574,0.0
52563.0,STARLINK-3942,PAYLOAD,2022-06-10 14:00:01,15.42771499,0.0001453,53.2173,158.1173,47.1343,261.1416,-0.020602,-0.0084627999999999,0.0,0 STARLINK-3942,1 52563U 22051AG  22161.58334491 -.00846280  00000-0 -20602-1 0  9991,2 52563  53.2173 158.1173 0001453  47.1343 261.1416 15.42771499  1309,6816.071,93.339,438.926,436.946,0.0
52563.0,STARLINK-3942,PAYLOAD,2022-06-10 22:00:00,15.42171681,0.0001501,53.2173,156.539,40.7683,319.5107,-0.020853,-0.00839938,0.0,0 STARLINK-3942,1 52563U 22051AG  22161.91667824 -.00839938  00000-0 -20853-1 0  9997,2 52563  53.2173 156.5390 0001501  40.7683 319.5107 15.42171681  1304,6817.8380000000025,93.375,440.727,438.68,0.0
